{"zip_codes":[{"zip_code":"77531","distance":49.28,"city":"Clute","state":"TX"},{"zip_code":"77566","distance":49.193,"city":"Lake Jackson","state":"TX"},{"zip_code":"77516","distance":41.524,"city":"Angleton","state":"TX"},{"zip_code":"77486","distance":45.471,"city":"West Columbia","state":"TX"},{"zip_code":"77515","distance":40.645,"city":"Angleton","state":"TX"},{"zip_code":"77431","distance":44.369,"city":"Danciger","state":"TX"},{"zip_code":"77463","distance":44.369,"city":"Old Ocean","state":"TX"},{"zip_code":"77534","distance":36.73,"city":"Danbury","state":"TX"},{"zip_code":"77554","distance":44.458,"city":"Galveston","state":"TX"},{"zip_code":"77420","distance":47.876,"city":"Boling","state":"TX"},{"zip_code":"77430","distance":38.642,"city":"Damon","state":"TX"},{"zip_code":"77551","distance":46.802,"city":"Galveston","state":"TX"},{"zip_code":"77577","distance":33.384,"city":"Liverpool","state":"TX"},{"zip_code":"77444","distance":40.526,"city":"Guy","state":"TX"},{"zip_code":"77552","distance":47.634,"city":"Galveston","state":"TX"},{"zip_code":"77553","distance":47.634,"city":"Galveston","state":"TX"},{"zip_code":"77555","distance":47.634,"city":"Galveston","state":"TX"},{"zip_code":"77563","distance":37.833,"city":"Hitchcock","state":"TX"},{"zip_code":"77550","distance":47.801,"city":"Galveston","state":"TX"},{"zip_code":"77510","distance":32.622,"city":"Santa Fe","state":"TX"},{"zip_code":"77568","distance":36.462,"city":"La Marque","state":"TX"},{"zip_code":"77517","distance":31.163,"city":"Santa Fe","state":"TX"},{"zip_code":"77511","distance":27.488,"city":"Alvin","state":"TX"},{"zip_code":"77583","distance":26.718,"city":"Rosharon","state":"TX"},{"zip_code":"77461","distance":36.531,"city":"Needville","state":"TX"},{"zip_code":"77590","distance":37.589,"city":"Texas City","state":"TX"},{"zip_code":"77591","distance":33.922,"city":"Texas City","state":"TX"},{"zip_code":"77592","distance":35.877,"city":"Texas City","state":"TX"},{"zip_code":"77448","distance":48.572,"city":"Hungerford","state":"TX"},{"zip_code":"77650","distance":47.662,"city":"Port Bolivar","state":"TX"},{"zip_code":"77512","distance":24.312,"city":"Alvin","state":"TX"},{"zip_code":"77451","distance":43.724,"city":"Kendleton","state":"TX"},{"zip_code":"77539","distance":30.006,"city":"Dickinson","state":"TX"},{"zip_code":"77417","distance":40.703,"city":"Beasley","state":"TX"},{"zip_code":"77481","distance":22.493,"city":"Thompsons","state":"TX"},{"zip_code":"77574","distance":25.642,"city":"League City","state":"TX"},{"zip_code":"77578","distance":19.232,"city":"Manvel","state":"TX"},{"zip_code":"77469","distance":26.288,"city":"Richmond","state":"TX"},{"zip_code":"77573","distance":24.952,"city":"League City","state":"TX"},{"zip_code":"77518","distance":29.367,"city":"Bacliff","state":"TX"},{"zip_code":"77549","distance":20.708,"city":"Friendswood","state":"TX"},{"zip_code":"77546","distance":20.342,"city":"Friendswood","state":"TX"},{"zip_code":"77435","distance":47.584,"city":"East Bernard","state":"TX"},{"zip_code":"77459","distance":18.128,"city":"Missouri City","state":"TX"},{"zip_code":"77565","distance":26.302,"city":"Kemah","state":"TX"},{"zip_code":"77545","distance":16.401,"city":"Fresno","state":"TX"},{"zip_code":"77598","distance":21.193,"city":"Webster","state":"TX"},{"zip_code":"77584","distance":14.961,"city":"Pearland","state":"TX"},{"zip_code":"77471","distance":32.386,"city":"Rosenberg","state":"TX"},{"zip_code":"77588","distance":15.942,"city":"Pearland","state":"TX"},{"zip_code":"77581","distance":14.976,"city":"Pearland","state":"TX"},{"zip_code":"77058","distance":21.727,"city":"Houston","state":"TX"},{"zip_code":"77479","distance":20.329,"city":"Sugar Land","state":"TX"},{"zip_code":"77062","distance":19.771,"city":"Houston","state":"TX"},{"zip_code":"77053","distance":13.109,"city":"Houston","state":"TX"},{"zip_code":"77586","distance":23.99,"city":"Seabrook","state":"TX"},{"zip_code":"77089","distance":15.139,"city":"Houston","state":"TX"},{"zip_code":"77464","distance":36.422,"city":"Orchard","state":"TX"},{"zip_code":"77489","distance":13.688,"city":"Missouri City","state":"TX"},{"zip_code":"77487","distance":17.251,"city":"Sugar Land","state":"TX"},{"zip_code":"77496","distance":17.251,"city":"Sugar Land","state":"TX"},{"zip_code":"77047","distance":10.327,"city":"Houston","state":"TX"},{"zip_code":"77059","distance":18.632,"city":"Houston","state":"TX"},{"zip_code":"77048","distance":10.328,"city":"Houston","state":"TX"},{"zip_code":"77034","distance":14.908,"city":"Houston","state":"TX"},{"zip_code":"77497","distance":14.496,"city":"Stafford","state":"TX"},{"zip_code":"77478","distance":16.608,"city":"Sugar Land","state":"TX"},{"zip_code":"77075","distance":11.727,"city":"Houston","state":"TX"},{"zip_code":"77085","distance":11.512,"city":"Houston","state":"TX"},{"zip_code":"77477","distance":14.669,"city":"Stafford","state":"TX"},{"zip_code":"77507","distance":21.195,"city":"Pasadena","state":"TX"},{"zip_code":"77485","distance":41.453,"city":"Wallis","state":"TX"},{"zip_code":"77045","distance":9.147,"city":"Houston","state":"TX"},{"zip_code":"77246","distance":8.813,"city":"Houston","state":"TX"},{"zip_code":"77247","distance":8.813,"city":"Houston","state":"TX"},{"zip_code":"77498","distance":18.238,"city":"Sugar Land","state":"TX"},{"zip_code":"77505","distance":16.433,"city":"Pasadena","state":"TX"},{"zip_code":"77406","distance":26.077,"city":"Richmond","state":"TX"},{"zip_code":"77061","distance":9.984,"city":"Houston","state":"TX"},{"zip_code":"77504","distance":13.794,"city":"Pasadena","state":"TX"},{"zip_code":"77071","distance":11.241,"city":"Houston","state":"TX"},{"zip_code":"77031","distance":12.445,"city":"Houston","state":"TX"},{"zip_code":"77035","distance":9.057,"city":"Houston","state":"TX"},{"zip_code":"77051","distance":7.178,"city":"Houston","state":"TX"},{"zip_code":"77501","distance":15.452,"city":"Pasadena","state":"TX"},{"zip_code":"77508","distance":15.452,"city":"Pasadena","state":"TX"},{"zip_code":"77572","distance":21.561,"city":"La Porte","state":"TX"},{"zip_code":"77587","distance":11.336,"city":"South Houston","state":"TX"},{"zip_code":"77033","distance":6.983,"city":"Houston","state":"TX"},{"zip_code":"77407","distance":20.626,"city":"Richmond","state":"TX"},{"zip_code":"77286","distance":6.335,"city":"Houston","state":"TX"},{"zip_code":"77260","distance":10.471,"city":"Houston","state":"TX"},{"zip_code":"77441","distance":33.108,"city":"Fulshear","state":"TX"},{"zip_code":"77099","distance":13.795,"city":"Houston","state":"TX"},{"zip_code":"77096","distance":8.343,"city":"Houston","state":"TX"},{"zip_code":"77502","distance":12.175,"city":"Pasadena","state":"TX"},{"zip_code":"77054","distance":5.705,"city":"Houston","state":"TX"},{"zip_code":"77025","distance":6.085,"city":"Houston","state":"TX"},{"zip_code":"77087","distance":6.831,"city":"Houston","state":"TX"},{"zip_code":"77476","distance":34.673,"city":"Simonton","state":"TX"},{"zip_code":"77074","distance":9.52,"city":"Houston","state":"TX"},{"zip_code":"77571","distance":20.01,"city":"La Porte","state":"TX"},{"zip_code":"77017","distance":9.072,"city":"Houston","state":"TX"},{"zip_code":"77083","distance":16.781,"city":"Houston","state":"TX"},{"zip_code":"77021","distance":4.483,"city":"Houston","state":"TX"},{"zip_code":"77536","distance":16.11,"city":"Deer Park","state":"TX"},{"zip_code":"77072","distance":12.961,"city":"Houston","state":"TX"},{"zip_code":"77411","distance":12.693,"city":"Alief","state":"TX"},{"zip_code":"77250","distance":9.883,"city":"Houston","state":"TX"},{"zip_code":"77402","distance":6.326,"city":"Bellaire","state":"TX"},{"zip_code":"77514","distance":46.797,"city":"Anahuac","state":"TX"},{"zip_code":"77036","distance":10.082,"city":"Houston","state":"TX"},{"zip_code":"77503","distance":13.832,"city":"Pasadena","state":"TX"},{"zip_code":"77401","distance":6.201,"city":"Bellaire","state":"TX"},{"zip_code":"77030","distance":3.891,"city":"Houston","state":"TX"},{"zip_code":"77081","distance":6.896,"city":"Houston","state":"TX"},{"zip_code":"77506","distance":11.286,"city":"Pasadena","state":"TX"},{"zip_code":"77005","distance":3.881,"city":"Houston","state":"TX"},{"zip_code":"77012","distance":6.975,"city":"Houston","state":"TX"},{"zip_code":"77023","distance":4.553,"city":"Houston","state":"TX"},{"zip_code":"77082","distance":15.763,"city":"Houston","state":"TX"},{"zip_code":"77004","distance":2.624,"city":"Houston","state":"TX"},{"zip_code":"77520","distance":23.239,"city":"Baytown","state":"TX"},{"zip_code":"77046","distance":3.675,"city":"Houston","state":"TX"},{"zip_code":"77098","distance":2.779,"city":"Houston","state":"TX"},{"zip_code":"77547","distance":8.685,"city":"Galena Park","state":"TX"},{"zip_code":"77063","distance":8.747,"city":"Houston","state":"TX"},{"zip_code":"77522","distance":25.266,"city":"Baytown","state":"TX"},{"zip_code":"77027","distance":4.186,"city":"Houston","state":"TX"},{"zip_code":"77494","distance":27.013,"city":"Katy","state":"TX"},{"zip_code":"77006","distance":1.468,"city":"Houston","state":"TX"},{"zip_code":"77042","distance":10.869,"city":"Houston","state":"TX"},{"zip_code":"77011","distance":4.417,"city":"Houston","state":"TX"},{"zip_code":"77057","distance":6.554,"city":"Houston","state":"TX"},{"zip_code":"77450","distance":21.711,"city":"Katy","state":"TX"},{"zip_code":"77056","distance":5.389,"city":"Houston","state":"TX"},{"zip_code":"77003","distance":2.179,"city":"Houston","state":"TX"},{"zip_code":"77276","distance":1.388,"city":"Houston","state":"TX"},{"zip_code":"77285","distance":1.388,"city":"Houston","state":"TX"},{"zip_code":"77077","distance":14.107,"city":"Houston","state":"TX"},{"zip_code":"77010","distance":1.313,"city":"Houston","state":"TX"},{"zip_code":"77019","distance":1.799,"city":"Houston","state":"TX"},{"zip_code":"77002","distance":0.92,"city":"Houston","state":"TX"},{"zip_code":"77029","distance":7.423,"city":"Houston","state":"TX"},{"zip_code":"77278","distance":7.767,"city":"Houston","state":"TX"},{"zip_code":"77001","distance":0,"city":"Houston","state":"TX"},{"zip_code":"77052","distance":0,"city":"Houston","state":"TX"},{"zip_code":"77202","distance":0,"city":"Houston","state":"TX"},{"zip_code":"77203","distance":0,"city":"Houston","state":"TX"},{"zip_code":"77204","distance":0,"city":"Houston","state":"TX"},{"zip_code":"77205","distance":0,"city":"Houston","state":"TX"},{"zip_code":"77206","distance":0,"city":"Houston","state":"TX"},{"zip_code":"77207","distance":0,"city":"Houston","state":"TX"},{"zip_code":"77208","distance":0,"city":"Houston","state":"TX"},{"zip_code":"77209","distance":0,"city":"Houston","state":"TX"},{"zip_code":"77210","distance":0,"city":"Houston","state":"TX"},{"zip_code":"77212","distance":0,"city":"Houston","state":"TX"},{"zip_code":"77213","distance":0,"city":"Houston","state":"TX"},{"zip_code":"77215","distance":0,"city":"Houston","state":"TX"},{"zip_code":"77216","distance":0,"city":"Houston","state":"TX"},{"zip_code":"77217","distance":0,"city":"Houston","state":"TX"},{"zip_code":"77218","distance":0,"city":"Houston","state":"TX"},{"zip_code":"77219","distance":0,"city":"Houston","state":"TX"},{"zip_code":"77220","distance":0,"city":"Houston","state":"TX"},{"zip_code":"77221","distance":0,"city":"Houston","state":"TX"},{"zip_code":"77222","distance":0,"city":"Houston","state":"TX"},{"zip_code":"77223","distance":0,"city":"Houston","state":"TX"},{"zip_code":"77224","distance":0,"city":"Houston","state":"TX"},{"zip_code":"77225","distance":0,"city":"Houston","state":"TX"},{"zip_code":"77226","distance":0,"city":"Houston","state":"TX"},{"zip_code":"77227","distance":0,"city":"Houston","state":"TX"},{"zip_code":"77228","distance":0,"city":"Houston","state":"TX"},{"zip_code":"77229","distance":0,"city":"Houston","state":"TX"},{"zip_code":"77230","distance":0,"city":"Houston","state":"TX"},{"zip_code":"77231","distance":0,"city":"Houston","state":"TX"},{"zip_code":"77233","distance":0,"city":"Houston","state":"TX"},{"zip_code":"77234","distance":0,"city":"Houston","state":"TX"},{"zip_code":"77235","distance":0,"city":"Houston","state":"TX"},{"zip_code":"77236","distance":0,"city":"Houston","state":"TX"},{"zip_code":"77237","distance":0,"city":"Houston","state":"TX"},{"zip_code":"77238","distance":0,"city":"Houston","state":"TX"},{"zip_code":"77240","distance":0,"city":"Houston","state":"TX"},{"zip_code":"77241","distance":0,"city":"Houston","state":"TX"},{"zip_code":"77242","distance":0,"city":"Houston","state":"TX"},{"zip_code":"77243","distance":0,"city":"Houston","state":"TX"},{"zip_code":"77244","distance":0,"city":"Houston","state":"TX"},{"zip_code":"77245","distance":0,"city":"Houston","state":"TX"},{"zip_code":"77248","distance":0,"city":"Houston","state":"TX"},{"zip_code":"77249","distance":0,"city":"Houston","state":"TX"},{"zip_code":"77251","distance":0,"city":"Houston","state":"TX"},{"zip_code":"77252","distance":0,"city":"Houston","state":"TX"},{"zip_code":"77253","distance":0,"city":"Houston","state":"TX"},{"zip_code":"77254","distance":0,"city":"Houston","state":"TX"},{"zip_code":"77255","distance":0,"city":"Houston","state":"TX"},{"zip_code":"77256","distance":0,"city":"Houston","state":"TX"},{"zip_code":"77257","distance":0,"city":"Houston","state":"TX"},{"zip_code":"77258","distance":0,"city":"Houston","state":"TX"},{"zip_code":"77259","distance":0,"city":"Houston","state":"TX"},{"zip_code":"77261","distance":0,"city":"Houston","state":"TX"},{"zip_code":"77262","distance":0,"city":"Houston","state":"TX"},{"zip_code":"77263","distance":0,"city":"Houston","state":"TX"},{"zip_code":"77265","distance":0,"city":"Houston","state":"TX"},{"zip_code":"77266","distance":0,"city":"Houston","state":"TX"},{"zip_code":"77267","distance":0,"city":"Houston","state":"TX"},{"zip_code":"77268","distance":0,"city":"Houston","state":"TX"},{"zip_code":"77269","distance":0,"city":"Houston","state":"TX"},{"zip_code":"77270","distance":0,"city":"Houston","state":"TX"},{"zip_code":"77271","distance":0,"city":"Houston","state":"TX"},{"zip_code":"77272","distance":0,"city":"Houston","state":"TX"},{"zip_code":"77273","distance":0,"city":"Houston","state":"TX"},{"zip_code":"77274","distance":0,"city":"Houston","state":"TX"},{"zip_code":"77275","distance":0,"city":"Houston","state":"TX"},{"zip_code":"77277","distance":0,"city":"Houston","state":"TX"},{"zip_code":"77279","distance":0,"city":"Houston","state":"TX"},{"zip_code":"77280","distance":0,"city":"Houston","state":"TX"},{"zip_code":"77282","distance":0,"city":"Houston","state":"TX"},{"zip_code":"77284","distance":0,"city":"Houston","state":"TX"},{"zip_code":"77287","distance":0,"city":"Houston","state":"TX"},{"zip_code":"77288","distance":0,"city":"Houston","state":"TX"},{"zip_code":"77289","distance":0,"city":"Houston","state":"TX"},{"zip_code":"77290","distance":0,"city":"Houston","state":"TX"},{"zip_code":"77291","distance":0,"city":"Houston","state":"TX"},{"zip_code":"77292","distance":0,"city":"Houston","state":"TX"},{"zip_code":"77293","distance":0,"city":"Houston","state":"TX"},{"zip_code":"77297","distance":0,"city":"Houston","state":"TX"},{"zip_code":"77299","distance":0,"city":"Houston","state":"TX"},{"zip_code":"77097","distance":1.203,"city":"Houston","state":"TX"},{"zip_code":"77296","distance":1.203,"city":"Houston","state":"TX"},{"zip_code":"77298","distance":1.203,"city":"Houston","state":"TX"},{"zip_code":"77015","distance":12.443,"city":"Houston","state":"TX"},{"zip_code":"77201","distance":1.048,"city":"Houston","state":"TX"},{"zip_code":"77094","distance":18.053,"city":"Houston","state":"TX"},{"zip_code":"77007","distance":2.019,"city":"Houston","state":"TX"},{"zip_code":"77024","distance":8.085,"city":"Houston","state":"TX"},{"zip_code":"77020","distance":4.055,"city":"Houston","state":"TX"},{"zip_code":"77079","distance":13.413,"city":"Houston","state":"TX"},{"zip_code":"77474","distance":48.059,"city":"Sealy","state":"TX"},{"zip_code":"77530","distance":15.873,"city":"Channelview","state":"TX"},{"zip_code":"77523","distance":31.335,"city":"Baytown","state":"TX"},{"zip_code":"77491","distance":26.436,"city":"Katy","state":"TX"},{"zip_code":"77492","distance":26.436,"city":"Katy","state":"TX"},{"zip_code":"77466","distance":37.967,"city":"Pattison","state":"TX"},{"zip_code":"77473","distance":43.705,"city":"San Felipe","state":"TX"},{"zip_code":"77013","distance":9.095,"city":"Houston","state":"TX"},{"zip_code":"77009","distance":2.557,"city":"Houston","state":"TX"},{"zip_code":"77055","distance":7.137,"city":"Houston","state":"TX"},{"zip_code":"77008","distance":3.439,"city":"Houston","state":"TX"},{"zip_code":"77026","distance":4.155,"city":"Houston","state":"TX"},{"zip_code":"77521","distance":24.776,"city":"Baytown","state":"TX"},{"zip_code":"77043","distance":12.76,"city":"Houston","state":"TX"},{"zip_code":"77080","distance":9.387,"city":"Houston","state":"TX"},{"zip_code":"77018","distance":5.352,"city":"Houston","state":"TX"},{"zip_code":"77084","distance":17.401,"city":"Houston","state":"TX"},{"zip_code":"77028","distance":7.279,"city":"Houston","state":"TX"},{"zip_code":"77413","distance":23.856,"city":"Barker","state":"TX"},{"zip_code":"77092","distance":7.426,"city":"Houston","state":"TX"},{"zip_code":"77022","distance":4.945,"city":"Houston","state":"TX"},{"zip_code":"77049","distance":14.766,"city":"Houston","state":"TX"},{"zip_code":"77562","distance":20.372,"city":"Highlands","state":"TX"},{"zip_code":"77597","distance":41.014,"city":"Wallisville","state":"TX"},{"zip_code":"77449","distance":21.863,"city":"Katy","state":"TX"},{"zip_code":"77078","distance":9.894,"city":"Houston","state":"TX"},{"zip_code":"77091","distance":7.241,"city":"Houston","state":"TX"},{"zip_code":"77493","distance":27.79,"city":"Katy","state":"TX"},{"zip_code":"77423","distance":36.411,"city":"Brookshire","state":"TX"},{"zip_code":"77041","distance":13.818,"city":"Houston","state":"TX"},{"zip_code":"77294","distance":10.888,"city":"Houston","state":"TX"},{"zip_code":"77076","distance":6.913,"city":"Houston","state":"TX"},{"zip_code":"77016","distance":8.564,"city":"Houston","state":"TX"},{"zip_code":"77093","distance":7.518,"city":"Houston","state":"TX"},{"zip_code":"77560","distance":47.266,"city":"Hankamer","state":"TX"},{"zip_code":"77580","distance":32.335,"city":"Mont Belvieu","state":"TX"},{"zip_code":"77040","distance":11.832,"city":"Houston","state":"TX"},{"zip_code":"77088","distance":9.442,"city":"Houston","state":"TX"},{"zip_code":"77037","distance":9.035,"city":"Houston","state":"TX"},{"zip_code":"77050","distance":11.911,"city":"Houston","state":"TX"},{"zip_code":"77044","distance":15.693,"city":"Houston","state":"TX"},{"zip_code":"77095","distance":19.251,"city":"Houston","state":"TX"},{"zip_code":"77039","distance":10.701,"city":"Houston","state":"TX"},{"zip_code":"77064","distance":14.346,"city":"Houston","state":"TX"},{"zip_code":"77038","distance":11.547,"city":"Houston","state":"TX"},{"zip_code":"77086","distance":12.851,"city":"Houston","state":"TX"},{"zip_code":"77065","distance":17.654,"city":"Houston","state":"TX"},{"zip_code":"77532","distance":22.753,"city":"Crosby","state":"TX"},{"zip_code":"77433","distance":25.087,"city":"Cypress","state":"TX"},{"zip_code":"77060","distance":12.169,"city":"Houston","state":"TX"},{"zip_code":"77396","distance":14.686,"city":"Humble","state":"TX"},{"zip_code":"77315","distance":13.345,"city":"North Houston","state":"TX"},{"zip_code":"77067","distance":13.892,"city":"Houston","state":"TX"},{"zip_code":"77066","distance":15.497,"city":"Houston","state":"TX"},{"zip_code":"77410","distance":23.151,"city":"Cypress","state":"TX"},{"zip_code":"77070","distance":19.063,"city":"Houston","state":"TX"},{"zip_code":"77014","distance":16.085,"city":"Houston","state":"TX"},{"zip_code":"77032","distance":15.822,"city":"Houston","state":"TX"},{"zip_code":"77069","distance":18.183,"city":"Houston","state":"TX"},{"zip_code":"77325","distance":17.449,"city":"Kingwood","state":"TX"},{"zip_code":"77347","distance":17.449,"city":"Humble","state":"TX"},{"zip_code":"77582","distance":41.537,"city":"Raywood","state":"TX"},{"zip_code":"77346","distance":20.253,"city":"Humble","state":"TX"},{"zip_code":"77429","distance":23.813,"city":"Cypress","state":"TX"},{"zip_code":"77073","distance":16.567,"city":"Houston","state":"TX"},{"zip_code":"77068","distance":18.261,"city":"Houston","state":"TX"},{"zip_code":"77090","distance":17.507,"city":"Houston","state":"TX"},{"zip_code":"77338","distance":18.649,"city":"Humble","state":"TX"},{"zip_code":"77379","distance":21.344,"city":"Spring","state":"TX"},{"zip_code":"77339","distance":21.991,"city":"Kingwood","state":"TX"},{"zip_code":"77447","distance":33.642,"city":"Hockley","state":"TX"},{"zip_code":"77345","distance":24.238,"city":"Kingwood","state":"TX"},{"zip_code":"77535","distance":34.171,"city":"Dayton","state":"TX"},{"zip_code":"77388","distance":21.28,"city":"Spring","state":"TX"},{"zip_code":"77383","distance":20.728,"city":"Spring","state":"TX"},{"zip_code":"77387","distance":20.728,"city":"Spring","state":"TX"},{"zip_code":"77391","distance":20.728,"city":"Spring","state":"TX"},{"zip_code":"77393","distance":20.728,"city":"Spring","state":"TX"},{"zip_code":"77377","distance":27.575,"city":"Tomball","state":"TX"},{"zip_code":"77373","distance":20.879,"city":"Spring","state":"TX"},{"zip_code":"77336","distance":26.881,"city":"Huffman","state":"TX"},{"zip_code":"77575","distance":44.455,"city":"Liberty","state":"TX"},{"zip_code":"77484","distance":39.735,"city":"Waller","state":"TX"},{"zip_code":"77446","distance":42.954,"city":"Prairie View","state":"TX"},{"zip_code":"77375","distance":26.213,"city":"Tomball","state":"TX"},{"zip_code":"77386","distance":23.555,"city":"Spring","state":"TX"},{"zip_code":"77445","distance":47.017,"city":"Hempstead","state":"TX"},{"zip_code":"77365","distance":24.469,"city":"Porter","state":"TX"},{"zip_code":"77337","distance":27.862,"city":"Hufsmith","state":"TX"},{"zip_code":"77389","distance":26.419,"city":"Spring","state":"TX"},{"zip_code":"77380","distance":26.575,"city":"Spring","state":"TX"},{"zip_code":"77355","distance":35.178,"city":"Magnolia","state":"TX"},{"zip_code":"77362","distance":32.63,"city":"Pinehurst","state":"TX"},{"zip_code":"77357","distance":29.959,"city":"New Caney","state":"TX"},{"zip_code":"77561","distance":47.724,"city":"Hardin","state":"TX"},{"zip_code":"77381","distance":29.791,"city":"Spring","state":"TX"},{"zip_code":"77385","distance":29.509,"city":"Conroe","state":"TX"},{"zip_code":"77382","distance":31.679,"city":"Spring","state":"TX"},{"zip_code":"77353","distance":37.821,"city":"Magnolia","state":"TX"},{"zip_code":"77354","distance":35.38,"city":"Magnolia","state":"TX"},{"zip_code":"77302","distance":32.023,"city":"Conroe","state":"TX"},{"zip_code":"77384","distance":33.463,"city":"Conroe","state":"TX"},{"zip_code":"77372","distance":35.757,"city":"Splendora","state":"TX"},{"zip_code":"77306","distance":36.558,"city":"Conroe","state":"TX"},{"zip_code":"77316","distance":41.939,"city":"Montgomery","state":"TX"},{"zip_code":"77301","distance":38.227,"city":"Conroe","state":"TX"},{"zip_code":"77363","distance":47.619,"city":"Plantersville","state":"TX"},{"zip_code":"77327","distance":47.537,"city":"Cleveland","state":"TX"},{"zip_code":"77305","distance":39.065,"city":"Conroe","state":"TX"},{"zip_code":"77304","distance":40.059,"city":"Conroe","state":"TX"},{"zip_code":"77303","distance":42.695,"city":"Conroe","state":"TX"},{"zip_code":"77333","distance":47.073,"city":"Dobbin","state":"TX"},{"zip_code":"77328","distance":45.132,"city":"Cleveland","state":"TX"},{"zip_code":"77318","distance":47.782,"city":"Willis","state":"TX"},{"zip_code":"77378","distance":49.162,"city":"Willis","state":"TX"}]}
